OBJECT_NAME,OBJECT_ID,EPOCH,MEAN_MOTION,ECCENTRICITY,INCLINATION,RA_OF_ASC_NODE,ARG_OF_PERICENTER,MEAN_ANOMALY,EPHEMERIS_TYPE,CLASSIFICATION_TYPE,NORAD_CAT_ID,ELEMENT_SET_NO,REV_AT_EPOCH,BSTAR,MEAN_MOTION_DOT,MEAN_MOTION_DDOT
ONEWEB-0068,2020-020Y,2026-06-19T12:26:41.614944,13.11414151,.00017053,87.8894,20.5998,80.5982,279.5339,0,U,45446,999,30290,-.36403739E-3,-.116E-5,0
ONEWEB-0046,2020-020Z,2026-06-19T14:04:33.304512,13.11413461,.00019284,87.8885,20.5920,79.2423,280.8922,0,U,45447,999,30292,.52031911E-3,.197E-5,0
ONEWEB-0063,2020-020AA,2026-06-19T01:57:09.856512,13.11416523,.00021161,87.8897,20.6914,85.4344,274.7026,0,U,45448,999,30294,-.12119657E-2,-.417E-5,0
ONEWEB-0019,2020-020AB,2026-06-19T13:52:09.671808,13.11415428,.00017376,87.8888,20.5791,90.8774,269.2553,0,U,45449,999,30285,.12581817E-2,.459E-5,0
ONEWEB-0094,2020-020AC,2026-06-19T13:22:01.129728,13.17647468,.00016167,87.9141,5.3776,87.7050,272.4267,0,U,45450,999,30662,-.60276097E-4,-.11E-6,0
ONEWEB-0087,2020-020AD,2026-06-19T02:11:25.765152,13.11419537,.00016327,87.8904,20.6639,77.3955,282.7355,0,U,45451,999,30283,-.35171577E-3,-.112E-5,0
ONEWEB-0082,2020-020AE,2026-06-19T07:36:09.249408,13.11420147,.00017878,87.8895,20.6355,70.4167,289.7154,0,U,45452,999,30295,-.7371857E-3,-.249E-5,0
ONEWEB-0050,2020-020AF,2026-06-19T13:25:49.142784,14.90389513,.00027793,88.9297,232.8888,20.5017,339.6323,0,U,45453,999,34073,.17928816E-3,.1766E-4,0
ONEWEB-0034,2020-020AG,2026-06-19T13:59:52.743840,13.11414126,.00018121,87.8892,20.5919,85.2915,274.8420,0,U,45454,999,30290,.84290305E-3,.311E-5,0
ONEWEB-0060,2020-020AH,2026-06-19T07:25:20.918496,13.11416457,.00011758,87.8887,20.6445,55.3930,304.7308,0,U,45455,999,30282,-.15748565E-2,-.545E-5,0
ONEWEB-0086,2020-020AJ,2026-06-19T12:24:15.352704,13.11413674,.00010281,87.8891,20.5983,90.0998,270.0247,0,U,45456,999,30291,-.31980913E-3,-.101E-5,0
ONEWEB-0088,2020-020AK,2026-06-19T13:42:34.867296,13.11418142,.00021382,87.8902,20.5606,78.7177,281.4192,0,U,45457,999,30285,.15298184E-2,.555E-5,0
ONEWEB-0102,2020-100A,2026-06-19T11:56:08.110176,13.12441348,.00016274,87.8939,350.2156,99.3401,260.7911,0,U,47258,999,26503,.10792021E-2,.401E-5,0
ONEWEB-0109,2020-100B,2026-06-19T12:08:19.780800,13.12441008,.00018488,87.8950,350.1974,96.4875,263.6464,0,U,47259,999,26486,.24281653E-3,.1E-5,0
ONEWEB-0110,2020-100C,2026-06-18T22:09:05.776128,13.12443281,.0001586,87.8949,350.2978,91.5772,268.5538,0,U,47260,999,26495,-.1172E-2,-.409E-5,0
ONEWEB-0111,2020-100D,2026-06-19T11:41:29.965632,13.12441836,.00017581,87.8949,350.2041,88.7120,271.4210,0,U,47261,999,26486,.1251913E-2,.463E-5,0
ONEWEB-0114,2020-100E,2026-06-19T12:25:25.313376,13.12433926,.00018847,87.8951,350.1952,97.1844,262.9499,0,U,47262,999,26482,.24370919E-2,.889E-5,0
ONEWEB-0117,2020-100F,2026-06-19T12:13:12.412416,13.12442368,.0001778,87.8947,350.1879,91.9484,268.1849,0,U,47263,999,26483,-.51218399E-4,-.6E-7,0
ONEWEB-0118,2020-100G,2026-06-19T05:42:52.340256,13.12443990,.00021332,87.8947,350.2447,91.4236,268.7137,0,U,47264,999,26499,-.10976398E-3,-.27E-6,0
ONEWEB-0119,2020-100H,2026-06-19T11:48:49.250880,13.12443297,.00018157,87.8939,350.2106,91.5622,268.5715,0,U,47265,999,26500,.13020769E-2,.481E-5,0
ONEWEB-0120,2020-100J,2026-06-19T12:23:09.607488,13.12442769,.00018613,87.8940,350.2068,97.4009,262.7331,0,U,47266,999,26503,-.83439131E-3,-.287E-5,0
ONEWEB-0121,2020-100K,2026-06-19T12:05:53.204928,13.12442831,.00016806,87.8951,350.1958,82.4075,277.7244,0,U,47267,999,26494,.18739761E-3,.8E-6,0
ONEWEB-0122,2020-100L,2026-06-19T11:57:22.083264,13.12442610,.00017352,87.8950,350.2015,96.5415,263.5911,0,U,47268,999,26485,.94899602E-3,.354E-5,0
ONEWEB-0123,2020-100M,2026-06-19T11:51:15.153696,13.12443744,.00019029,87.8937,350.2093,90.7695,269.3651,0,U,47269,999,26499,.12224682E-2,.453E-5,0
ONEWEB-0124,2020-100N,2026-06-19T13:26:23.699328,13.12444936,.00017471,87.8937,350.1992,87.6385,272.4943,0,U,47270,999,26488,.11671139E-2,.433E-5,0
ONEWEB-0125,2020-100P,2026-06-19T05:35:32.282592,13.12443294,.00019352,87.8949,350.2480,82.6293,277.5056,0,U,47271,999,26490,-.10587726E-2,-.368E-5,0
ONEWEB-0126,2020-100Q,2026-06-19T13:24:10.486080,13.12443369,.00018802,87.8942,350.1985,93.7278,266.4066,0,U,47272,999,26501,.93889385E-3,.351E-5,0
ONEWEB-0127,2020-100R,2026-06-19T01:36:27.682848,13.12441615,.00018303,87.8935,350.2950,95.1588,264.9749,0,U,47273,999,26497,-.16455831E-2,-.579E-5,0
ONEWEB-0128,2020-100S,2026-06-19T05:47:44.818944,13.12444368,.00014979,87.8935,350.2743,91.0053,269.1247,0,U,47274,999,26501,.22437717E-3,.93E-6,0
ONEWEB-0129,2020-100T,2026-06-18T21:59:20.709024,13.12443625,.0002477,87.8949,350.3130,115.9045,244.2339,0,U,47275,999,26490,-.12206E-2,-.426E-5,0
