ONEWEB-0068             
1 45446U 20020Y   26170.51853721 -.00000116  00000+0 -36404-3 0  9994
2 45446  87.8894  20.5998 0001705  80.5982 279.5339 13.11414151302901
ONEWEB-0046             
1 45447U 20020Z   26170.58649658  .00000197  00000+0  52032-3 0  9996
2 45447  87.8885  20.5920 0001928  79.2423 280.8922 13.11413461302927
ONEWEB-0063             
1 45448U 20020AA  26170.08136408 -.00000417  00000+0 -12120-2 0  9996
2 45448  87.8897  20.6914 0002116  85.4344 274.7026 13.11416523302947
ONEWEB-0019             
1 45449U 20020AB  26170.57788972  .00000459  00000+0  12582-2 0  9996
2 45449  87.8888  20.5791 0001737  90.8774 269.2553 13.11415428302852
ONEWEB-0094             
1 45450U 20020AC  26170.55695752 -.00000011  00000+0 -60276-4 0  9990
2 45450  87.9141   5.3776 0001616  87.7050 272.4267 13.17647468306623
ONEWEB-0087             
1 45451U 20020AD  26170.09127043 -.00000112  00000+0 -35172-3 0  9991
2 45451  87.8904  20.6639 0001632  77.3955 282.7355 13.11419537302834
ONEWEB-0082             
1 45452U 20020AE  26170.31677372 -.00000249  00000+0 -73719-3 0  9992
2 45452  87.8895  20.6355 0001787  70.4167 289.7154 13.11420147302955
ONEWEB-0050             
1 45453U 20020AF  26170.55959656  .00001766  00000+0  17929-3 0  9991
2 45453  88.9297 232.8888 0002779  20.5017 339.6323 14.90389513340734
ONEWEB-0034             
1 45454U 20020AG  26170.58324935  .00000311  00000+0  84290-3 0  9991
2 45454  87.8892  20.5919 0001812  85.2915 274.8420 13.11414126302909
ONEWEB-0060             
1 45455U 20020AH  26170.30926989 -.00000545  00000+0 -15749-2 0  9992
2 45455  87.8887  20.6445 0001175  55.3930 304.7308 13.11416457302824
ONEWEB-0086             
1 45456U 20020AJ  26170.51684436 -.00000101  00000+0 -31981-3 0  9999
2 45456  87.8891  20.5983 0001028  90.0998 270.0247 13.11413674302918
ONEWEB-0088             
1 45457U 20020AK  26170.57123689  .00000555  00000+0  15298-2 0  9997
2 45457  87.8902  20.5606 0002138  78.7177 281.4192 13.11418142302852
ONEWEB-0102             
1 47258U 20100A   26170.49731609  .00000401  00000+0  10792-2 0  9999
2 47258  87.8939 350.2156 0001627  99.3401 260.7911 13.12441348265039
ONEWEB-0109             
1 47259U 20100B   26170.50578450  .00000100  00000+0  24282-3 0  9991
2 47259  87.8950 350.1974 0001848  96.4875 263.6464 13.12441008264866
ONEWEB-0110             
1 47260U 20100C   26169.92298352 -.00000409  00000+0 -11720-2 0  9993
2 47260  87.8949 350.2978 0001586  91.5772 268.5538 13.12443281264953
ONEWEB-0111             
1 47261U 20100D   26170.48715238  .00000463  00000+0  12519-2 0  9999
2 47261  87.8949 350.2041 0001758  88.7120 271.4210 13.12441836264865
ONEWEB-0114             
1 47262U 20100E   26170.51765409  .00000889  00000+0  24371-2 0  9990
2 47262  87.8951 350.1952 0001884  97.1844 262.9499 13.12433926264827
ONEWEB-0117             
1 47263U 20100F   26170.50917144 -.00000006  00000+0 -51218-4 0  9990
2 47263  87.8947 350.1879 0001778  91.9484 268.1849 13.12442368264833
ONEWEB-0118             
1 47264U 20100G   26170.23810579 -.00000027  00000+0 -10976-3 0  9993
2 47264  87.8947 350.2447 0002133  91.4236 268.7137 13.12443990264997
ONEWEB-0119             
1 47265U 20100H   26170.49223670  .00000481  00000+0  13021-2 0  9997
2 47265  87.8939 350.2106 0001815  91.5622 268.5715 13.12443297265000
ONEWEB-0120             
1 47266U 20100J   26170.51608342 -.00000287  00000+0 -83439-3 0  9991
2 47266  87.8940 350.2068 0001861  97.4009 262.7331 13.12442769265031
ONEWEB-0121             
1 47267U 20100K   26170.50408802  .00000080  00000+0  18740-3 0  9992
2 47267  87.8951 350.1958 0001680  82.4075 277.7244 13.12442831264945
ONEWEB-0122             
1 47268U 20100L   26170.49817226  .00000354  00000+0  94900-3 0  9991
2 47268  87.8950 350.2015 0001735  96.5415 263.5911 13.12442610264854
ONEWEB-0123             
1 47269U 20100M   26170.49392539  .00000453  00000+0  12225-2 0  9996
2 47269  87.8937 350.2093 0001902  90.7695 269.3651 13.12443744264997
ONEWEB-0124             
1 47270U 20100N   26170.55999652  .00000433  00000+0  11671-2 0  9996
2 47270  87.8937 350.1992 0001747  87.6385 272.4943 13.12444936264885
ONEWEB-0125             
1 47271U 20100P   26170.23301253 -.00000368  00000+0 -10588-2 0  9991
2 47271  87.8949 350.2480 0001935  82.6293 277.5056 13.12443294264904
ONEWEB-0126             
1 47272U 20100Q   26170.55845470  .00000351  00000+0  93889-3 0  9997
2 47272  87.8942 350.1985 0001880  93.7278 266.4066 13.12443369265016
ONEWEB-0127             
1 47273U 20100R   26170.06698707 -.00000579  00000+0 -16456-2 0  9991
2 47273  87.8935 350.2950 0001830  95.1588 264.9749 13.12441615264974
ONEWEB-0128             
1 47274U 20100S   26170.24149096  .00000093  00000+0  22438-3 0  9991
2 47274  87.8935 350.2743 0001497  91.0053 269.1247 13.12444368265010
ONEWEB-0129             
1 47275U 20100T   26169.91621191 -.00000426  00000+0 -12206-2 0  9998
2 47275  87.8949 350.3130 0002477 115.9045 244.2339 13.12443625264901
